{"type": "FeatureCollection", "features": [ {"type": "Feature", "properties": {"norad_id": 67029, "name": "STARLINK-36190", "group": "last-30-days", "lat": 15.829956850694566, "lon": 114.21323320481743, "alt_km": 298.8436483626292, "timestamp": "2025-12-20T20:38:43.175557+00:00", "meta": {"OBJECT_NAME": "STARLINK-36190", "OBJECT_ID": "2025-293AC", "EPOCH": "2025-12-20T14:00:03.000384", "MEAN_MOTION": 15.92313357, "ECCENTRICITY": 0.00040172, "INCLINATION": 69.9932, "RA_OF_ASC_NODE": 300.9471, "ARG_OF_PERICENTER": 269.3486, "MEAN_ANOMALY": 107.5578, "EPHEMERIS_TYPE": 0, "CLASSIFICATION_TYPE": "U", "NORAD_CAT_ID": 67029, "ELEMENT_SET_NO": 999, "REV_AT_EPOCH": 149, "BSTAR": -0.0041571659, "MEAN_MOTION_DOT": -0.01398315, "MEAN_MOTION_DDOT": 0.00056293919}, "tle": {"line1": "1 67029U 25293AC  25354.58336806 -.01398315  56294-3 -41572-2 0  9995", "line2": "2 67029  69.9932 300.9471 0004017 269.3486 107.5578 15.92313357  1494"}}, "geometry": {"type": "Point", "coordinates": [114.21323320481743, 15.829956850694566]}}, {"type": "Feature", "properties": {"norad_id": 67030, "name": "STARLINK-36138", "group": "last-30-days", "lat": 37.46934646719383, "lon": -102.81389339469797, "alt_km": 306.52129199221235, "timestamp": "2025-12-20T20:38:43.175567+00:00", "meta": {"OBJECT_NAME": "STARLINK-36138", "OBJECT_ID": "2025-294A", "EPOCH": "2025-12-20T14:00:03.000384", "MEAN_MOTION": 15.87570375, "ECCENTRICITY": 0.00015972, "INCLINATION": 42.9996, "RA_OF_ASC_NODE": 134.2388, "ARG_OF_PERICENTER": 271.5842, "MEAN_ANOMALY": 61.3886, "EPHEMERIS_TYPE": 0, "CLASSIFICATION_TYPE": "U", "NORAD_CAT_ID": 67030, "ELEMENT_SET_NO": 999, "REV_AT_EPOCH": 137, "BSTAR": -0.0056097411, "MEAN_MOTION_DOT": -0.01355206, "MEAN_MOTION_DDOT": 0}, "tle": {"line1": "1 67030U 25294A   25354.58336806 -.01355206  00000+0 -56097-2 0  9998", "line2": "2 67030  42.9996 134.2388 0001597 271.5842  61.3886 15.87570375  1378"}}, "geometry": {"type": "Point", "coordinates": [-102.81389339469797, 37.46934646719383]}}, {"type": "Feature", "properties": {"norad_id": 67031, "name": "STARLINK-36150", "group": "last-30-days", "lat": 36.82248605979163, "lon": -100.94080607244828, "alt_km": 306.5869226205896, "timestamp": "2025-12-20T20:38:43.175577+00:00", "meta": {"OBJECT_NAME": "STARLINK-36150", "OBJECT_ID": "2025-294B", "EPOCH": "2025-12-20T14:00:03.000384", "MEAN_MOTION": 15.87606948, "ECCENTRICITY": 0.00016911, "INCLINATION": 42.9997, "RA_OF_ASC_NODE": 134.2345, "ARG_OF_PERICENTER": 273.3724, "MEAN_ANOMALY": 61.1931, "EPHEMERIS_TYPE": 0, "CLASSIFICATION_TYPE": "U", "NORAD_CAT_ID": 67031, "ELEMENT_SET_NO": 999, "REV_AT_EPOCH": 156, "BSTAR": -0.0056089831, "MEAN_MOTION_DOT": -0.01357299, "MEAN_MOTION_DDOT": 0}, "tle": {"line1": "1 67031U 25294B   25354.58336806 -.01357299  00000+0 -56090-2 0  9996", "line2": "2 67031  42.9997 134.2345 0001691 273.3724  61.1931 15.87606948  1563"}}, "geometry": {"type": "Point", "coordinates": [-100.94080607244828, 36.82248605979163]}}, {"type": "Feature", "properties": {"norad_id": 67032, "name": "STARLINK-36131", "group": "last-30-days", "lat": 35.0712232938894, "lon": -96.3749160522498, "alt_km": 306.5549320238806, "timestamp": "2025-12-20T20:38:43.175587+00:00", "meta": {"OBJECT_NAME": "STARLINK-36131", "OBJECT_ID": "2025-294C", "EPOCH": "2025-12-20T14:00:03.000384", "MEAN_MOTION": 15.87677151, "ECCENTRICITY": 0.00016346, "INCLINATION": 42.9997, "RA_OF_ASC_NODE": 134.2243, "ARG_OF_PERICENTER": 267.6416, "MEAN_ANOMALY": 70.9532, "EPHEMERIS_TYPE": 0, "CLASSIFICATION_TYPE": "U", "NORAD_CAT_ID": 67032, "ELEMENT_SET_NO": 999, "REV_AT_EPOCH": 137, "BSTAR": -0.0056480235, "MEAN_MOTION_DOT": -0.0136974, "MEAN_MOTION_DDOT": 0}, "tle": {"line1": "1 67032U 25294C   25354.58336806 -.01369740  00000+0 -56480-2 0  9994", "line2": "2 67032  42.9997 134.2243 0001634 267.6416  70.9532 15.87677151  1370"}}, "geometry": {"type": "Point", "coordinates": [-96.3749160522498, 35.0712232938894]}}, {"type": "Feature", "properties": {"norad_id": 67033, "name": "STARLINK-36137", "group": "last-30-days", "lat": 35.97812864304519, "lon": -98.6571559043114, "alt_km": 306.5687428589181, "timestamp": "2025-12-20T20:38:43.175597+00:00", "meta": {"OBJECT_NAME": "STARLINK-36137", "OBJECT_ID": "2025-294D", "EPOCH": "2025-12-20T14:00:03.000384", "MEAN_MOTION": 15.87641018, "ECCENTRICITY": 0.00016788, "INCLINATION": 42.9997, "RA_OF_ASC_NODE": 134.2297, "ARG_OF_PERICENTER": 269.9098, "MEAN_ANOMALY": 66.6483, "EPHEMERIS_TYPE": 0, "CLASSIFICATION_TYPE": "U", "NORAD_CAT_ID": 67033, "ELEMENT_SET_NO": 999, "REV_AT_EPOCH": 137, "BSTAR": -0.005613964, "MEAN_MOTION_DOT": -0.01360383, "MEAN_MOTION_DDOT": 0}, "tle": {"line1": "1 67033U 25294D   25354.58336806 -.01360383  00000+0 -56140-2 0  9992", "line2": "2 67033  42.9997 134.2297 0001678 269.9098  66.6483 15.87641018  1379"}}, "geometry": {"type": "Point", "coordinates": [-98.6571559043114, 35.97812864304519]}}, {"type": "Feature", "properties": {"norad_id": 67034, "name": "STARLINK-36140", "group": "last-30-days", "lat": 34.03772419516537, "lon": -93.95153012618793, "alt_km": 306.66049715339705, "timestamp": "2025-12-20T20:38:43.175607+00:00", "meta": {"OBJECT_NAME": "STARLINK-36140", "OBJECT_ID": "2025-294E", "EPOCH": "2025-12-20T14:00:03.000384", "MEAN_MOTION": 15.87703639, "ECCENTRICITY": 0.0001718, "INCLINATION": 42.9997, "RA_OF_ASC_NODE": 134.219, "ARG_OF_PERICENTER": 266.9421, "MEAN_ANOMALY": 73.8771, "EPHEMERIS_TYPE": 0, "CLASSIFICATION_TYPE": "U", "NORAD_CAT_ID": 67034, "ELEMENT_SET_NO": 999, "REV_AT_EPOCH": 137, "BSTAR": -0.0056504803, "MEAN_MOTION_DOT": -0.01371923, "MEAN_MOTION_DDOT": 0}, "tle": {"line1": "1 67034U 25294E   25354.58336806 -.01371923  00000+0 -56505-2 0  9990", "line2": "2 67034  42.9997 134.2190 0001718 266.9421  73.8771 15.87703639  1372"}}, "geometry": {"type": "Point", "coordinates": [-93.95153012618793, 34.03772419516537]}}, {"type": "Feature", "properties": {"norad_id": 67035, "name": "STARLINK-36085", "group": "last-30-days", "lat": 31.7996521177981, "lon": -89.215069828003, "alt_km": 306.83390394377784, "timestamp": "2025-12-20T20:38:43.175617+00:00", "meta": {"OBJECT_NAME": "STARLINK-36085", "OBJECT_ID": "2025-294F", "EPOCH": "2025-12-20T14:00:03.000384", "MEAN_MOTION": 15.87768049, "ECCENTRICITY": 0.0001651, "INCLINATION": 42.9999, "RA_OF_ASC_NODE": 134.2073, "ARG_OF_PERICENTER": 270.2834, "MEAN_ANOMALY": 75.0436, "EPHEMERIS_TYPE": 0, "CLASSIFICATION_TYPE": "U", "NORAD_CAT_ID": 67035, "ELEMENT_SET_NO": 999, "REV_AT_EPOCH": 137, "BSTAR": -0.005729988, "MEAN_MOTION_DOT": -0.01392635, "MEAN_MOTION_DDOT": 0}, "tle": {"line1": "1 67035U 25294F   25354.58336806 -.01392635  00000+0 -57300-2 0  9998", "line2": "2 67035  42.9999 134.2073 0001651 270.2834  75.0436 15.87768049  1375"}}, "geometry": {"type": "Point", "coordinates": [-89.215069828003, 31.7996521177981]}}, {"type": "Feature", "properties": {"norad_id": 67036, "name": "STARLINK-36125", "group": "last-30-days", "lat": 32.94326045247376, "lon": -91.55761508153283, "alt_km": 306.70338490654103, "timestamp": "2025-12-20T20:38:43.175629+00:00", "meta": {"OBJECT_NAME": "STARLINK-36125", "OBJECT_ID": "2025-294G", "EPOCH": "2025-12-20T14:00:03.000384", "MEAN_MOTION": 15.87736796, "ECCENTRICITY": 0.00016778, "INCLINATION": 42.9998, "RA_OF_ASC_NODE": 134.2133, "ARG_OF_PERICENTER": 266.4697, "MEAN_ANOMALY": 76.5985, "EPHEMERIS_TYPE": 0, "CLASSIFICATION_TYPE": "U", "NORAD_CAT_ID": 67036, "ELEMENT_SET_NO": 999, "REV_AT_EPOCH": 156, "BSTAR": -0.0056869624, "MEAN_MOTION_DOT": -0.01381635, "MEAN_MOTION_DDOT": 0}, "tle": {"line1": "1 67036U 25294G   25354.58336806 -.01381635  00000+0 -56870-2 0  9998", "line2": "2 67036  42.9998 134.2133 0001677 266.4697  76.5985 15.87736796  1564"}}, "geometry": {"type": "Point", "coordinates": [-91.55761508153283, 32.94326045247376]}}, {"type": "Feature", "properties": {"norad_id": 67037, "name": "STARLINK-35732", "group": "last-30-days", "lat": 30.52863286570276, "lon": -86.7713322843553, "alt_km": 306.9153639771639, "timestamp": "2025-12-20T20:38:43.175641+00:00", "meta": {"OBJECT_NAME": "STARLINK-35732", "OBJECT_ID": "2025-294H", "EPOCH": "2025-12-20T14:00:03.000384", "MEAN_MOTION": 15.87796859, "ECCENTRICITY": 0.00016669, "INCLINATION": 42.9998, "RA_OF_ASC_NODE": 134.2015, "ARG_OF_PERICENTER": 268.2026, "MEAN_ANOMALY": 79.5479, "EPHEMERIS_TYPE": 0, "CLASSIFICATION_TYPE": "U", "NORAD_CAT_ID": 67037, "ELEMENT_SET_NO": 999, "REV_AT_EPOCH": 148, "BSTAR": -0.0057539042, "MEAN_MOTION_DOT": -0.01399479, "MEAN_MOTION_DDOT": 0}, "tle": {"line1": "1 67037U 25294H   25354.58336806 -.01399479  00000+0 -57539-2 0  9997", "line2": "2 67037  42.9998 134.2015 0001666 268.2026  79.5479 15.87796859  1486"}}, "geometry": {"type": "Point", "coordinates": [-86.7713322843553, 30.52863286570276]}}, {"type": "Feature", "properties": {"norad_id": 67038, "name": "STARLINK-35775", "group": "last-30-days", "lat": 29.412572306517582, "lon": -84.74422798871188, "alt_km": 307.05968303305235, "timestamp": "2025-12-20T20:38:43.175651+00:00", "meta": {"OBJECT_NAME": "STARLINK-35775", "OBJECT_ID": "2025-294J", "EPOCH": "2025-12-20T14:00:03.000384", "MEAN_MOTION": 15.87835421, "ECCENTRICITY": 0.00016322, "INCLINATION": 42.9999, "RA_OF_ASC_NODE": 134.1961, "ARG_OF_PERICENTER": 274.1873, "MEAN_ANOMALY": 75.6103, "EPHEMERIS_TYPE": 0, "CLASSIFICATION_TYPE": "U", "NORAD_CAT_ID": 67038, "ELEMENT_SET_NO": 999, "REV_AT_EPOCH": 148, "BSTAR": -0.0058075103, "MEAN_MOTION_DOT": -0.01413172, "MEAN_MOTION_DDOT": 0}, "tle": {"line1": "1 67038U 25294J   25354.58336806 -.01413172  00000+0 -58075-2 0  9991", "line2": "2 67038  42.9999 134.1961 0001632 274.1873  75.6103 15.87835421  1486"}}, "geometry": {"type": "Point", "coordinates": [-84.74422798871188, 29.412572306517582]}}]}